[{"OBJECT_NAME":"HAWK-8C","OBJECT_ID":"2024-066H","EPOCH":"2026-03-09T11:22:19.381152","MEAN_MOTION":14.98770227,"ECCENTRICITY":0.00039352,"INCLINATION":45.6068,"RA_OF_ASC_NODE":72.8656,"ARG_OF_PERICENTER":260.2975,"MEAN_ANOMALY":99.7462,"EPHEMERIS_TYPE":0,"CLASSIFICATION_TYPE":"U","NORAD_CAT_ID":59449,"ELEMENT_SET_NO":999,"REV_AT_EPOCH":10486,"BSTAR":0.00021518384,"MEAN_MOTION_DOT":2.4e-5,"MEAN_MOTION_DDOT":0},{"OBJECT_NAME":"STARLINK-34479","OBJECT_ID":"2025-126X","EPOCH":"2026-03-09T22:28:15.392064","MEAN_MOTION":14.98343157,"ECCENTRICITY":0.00051811,"INCLINATION":70.0026,"RA_OF_ASC_NODE":34.0385,"ARG_OF_PERICENTER":268.5272,"MEAN_ANOMALY":91.5294,"EPHEMERIS_TYPE":0,"CLASSIFICATION_TYPE":"U","NORAD_CAT_ID":64365,"ELEMENT_SET_NO":999,"REV_AT_EPOCH":4071,"BSTAR":0.001054264,"MEAN_MOTION_DOT":0.00012515,"MEAN_MOTION_DDOT":0}]
